{
  "type": "FeatureCollection",
  "features": [
    {
      "type": "Feature",
      "geometry": {
        "type": "Polygon",
        "coordinates": [
          [
            [
              14.3,
              53.1
            ],
            [
              14.3,
              53.7
            ],
            [
              13.7,
              53.7
            ],
            [
              13.7,
              53.1
            ],
            [
              14.3,
              53.1
            ]
          ]
        ]
      },
      "properties": {
        "zone_id": "Z01",
        "name": "Uckermark-Kernland",
        "landkreis": "Uckermark",
        "karte_score": 7.65,
        "tag": "active",
        "tag_display": "🟢 Active",
        "landrat": "Karina Dörk",
        "party": "CDU",
        "party_colour": "#000000",
        "political_note": "Re-elected Apr 2025, beat AfD 60%",
        "fill": "#22c55e",
        "fill-opacity": 0.15,
        "stroke": "#000000",
        "stroke-width": 2,
        "stroke-opacity": 0.8,
        "label": "Z01 • Uckermark-Kernland • CDU",
        "note": "Eastern Uckermark around Prenzlau, Angermünde, Templin"
      }
    }
  ]
}