{
  "type": "FeatureCollection",
  "features": [
    {
      "type": "Feature",
      "geometry": {
        "type": "Polygon",
        "coordinates": [
          [
            [
              13.15,
              52.05
            ],
            [
              13.15,
              52.38
            ],
            [
              12.7,
              52.38
            ],
            [
              12.7,
              52.05
            ],
            [
              13.15,
              52.05
            ]
          ]
        ]
      },
      "properties": {
        "zone_id": "Z09",
        "name": "Hoher Fläming",
        "landkreis": "Potsdam-Mittelmark",
        "karte_score": 6.8,
        "tag": "top_shelf",
        "tag_display": "⭐ Top Shelf",
        "landrat": "Marko Schöneburg",
        "party": "SPD",
        "party_colour": "#E3000F",
        "political_note": "SPD",
        "fill": "#f59e0b",
        "fill-opacity": 0.15,
        "stroke": "#E3000F",
        "stroke-width": 2,
        "stroke-opacity": 0.8,
        "label": "Z09 • Hoher Fläming • SPD",
        "note": "Fläming hills, reclassified Top Shelf (avg €744k)"
      }
    }
  ]
}