{
  "type": "FeatureCollection",
  "features": [
    {
      "type": "Feature",
      "geometry": {
        "type": "Polygon",
        "coordinates": [
          [
            [
              14.4,
              52.0
            ],
            [
              14.4,
              52.3
            ],
            [
              13.75,
              52.3
            ],
            [
              13.75,
              52.0
            ],
            [
              14.4,
              52.0
            ]
          ]
        ]
      },
      "properties": {
        "zone_id": "Z13",
        "name": "Oder-Spree-Seen",
        "landkreis": "Oder-Spree",
        "karte_score": 6.2,
        "tag": "top_shelf",
        "tag_display": "⭐ Top Shelf",
        "landrat": "Rolf Lindemann",
        "party": "SPD",
        "party_colour": "#E3000F",
        "political_note": "SPD",
        "fill": "#f59e0b",
        "fill-opacity": 0.15,
        "stroke": "#E3000F",
        "stroke-width": 2,
        "stroke-opacity": 0.8,
        "label": "Z13 • Oder-Spree-Seen • SPD",
        "note": "Lake district, expensive zone — intelligence only"
      }
    }
  ]
}