{
  "type": "FeatureCollection",
  "name": "KARTE — Exclusion Zone",
  "features": [
    {
      "type": "Feature",
      "properties": {
        "name": "EXCLUSION inner 30km",
        "type": "exclusion",
        "reason": "Suburban pressure, prices €300k+",
        "verdict": "❌ Exclude"
      },
      "geometry": {
        "type": "Polygon",
        "coordinates": [
          [
            [
              13.2957,
              52.790293
            ],
            [
              13.339112,
              52.788996
            ],
            [
              13.382106,
              52.785115
            ],
            [
              13.424267,
              52.778689
            ],
            [
              13.465191,
              52.769779
            ],
            [
              13.504482,
              52.758472
            ],
            [
              13.541763,
              52.744876
            ],
            [
              13.576673,
              52.729121
            ],
            [
              13.608878,
              52.711361
            ],
            [
              13.638067,
              52.691765
            ],
            [
              13.663959,
              52.670522
            ],
            [
              13.686304,
              52.647838
            ],
            [
              13.704887,
              52.623931
            ],
            [
              13.71953,
              52.59903
            ],
            [
              13.730091,
              52.573376
            ],
            [
              13.736468,
              52.547215
            ],
            [
              13.738601,
              52.5208
            ],
            [
              13.736468,
              52.494385
            ],
            [
              13.730091,
              52.468224
            ],
            [
              13.71953,
              52.44257
            ],
            [
              13.704887,
              52.417669
            ],
            [
              13.686304,
              52.393762
            ],
            [
              13.663959,
              52.371078
            ],
            [
              13.638067,
              52.349835
            ],
            [
              13.608878,
              52.330239
            ],
            [
              13.576673,
              52.312479
            ],
            [
              13.541763,
              52.296724
            ],
            [
              13.504482,
              52.283128
            ],
            [
              13.465191,
              52.271821
            ],
            [
              13.424267,
              52.262911
            ],
            [
              13.382106,
              52.256485
            ],
            [
              13.339112,
              52.252604
            ],
            [
              13.2957,
              52.251307
            ],
            [
              13.252288,
              52.252604
            ],
            [
              13.209294,
              52.256485
            ],
            [
              13.167133,
              52.262911
            ],
            [
              13.126209,
              52.271821
            ],
            [
              13.086918,
              52.283128
            ],
            [
              13.049637,
              52.296724
            ],
            [
              13.014727,
              52.312479
            ],
            [
              12.982522,
              52.330239
            ],
            [
              12.953333,
              52.349835
            ],
            [
              12.927441,
              52.371078
            ],
            [
              12.905096,
              52.393762
            ],
            [
              12.886513,
              52.417669
            ],
            [
              12.87187,
              52.44257
            ],
            [
              12.861309,
              52.468224
            ],
            [
              12.854932,
              52.494385
            ],
            [
              12.852799,
              52.5208
            ],
            [
              12.854932,
              52.547215
            ],
            [
              12.861309,
              52.573376
            ],
            [
              12.87187,
              52.59903
            ],
            [
              12.886513,
              52.623931
            ],
            [
              12.905096,
              52.647838
            ],
            [
              12.927441,
              52.670522
            ],
            [
              12.953333,
              52.691765
            ],
            [
              12.982522,
              52.711361
            ],
            [
              13.014727,
              52.729121
            ],
            [
              13.049637,
              52.744876
            ],
            [
              13.086918,
              52.758472
            ],
            [
              13.126209,
              52.769779
            ],
            [
              13.167133,
              52.778689
            ],
            [
              13.209294,
              52.785115
            ],
            [
              13.252288,
              52.788996
            ],
            [
              13.2957,
              52.790293
            ]
          ]
        ]
      }
    }
  ]
}