{
  "type": "FeatureCollection",
  "name": "KARTE — Distance Rings",
  "features": [
    {
      "type": "Feature",
      "properties": {
        "name": "30 km ring",
        "km": 30,
        "type": "ring"
      },
      "geometry": {
        "type": "Polygon",
        "coordinates": [
          [
            [
              13.2957,
              52.790293
            ],
            [
              13.339112,
              52.788996
            ],
            [
              13.382106,
              52.785115
            ],
            [
              13.424267,
              52.778689
            ],
            [
              13.465191,
              52.769779
            ],
            [
              13.504482,
              52.758472
            ],
            [
              13.541763,
              52.744876
            ],
            [
              13.576673,
              52.729121
            ],
            [
              13.608878,
              52.711361
            ],
            [
              13.638067,
              52.691765
            ],
            [
              13.663959,
              52.670522
            ],
            [
              13.686304,
              52.647838
            ],
            [
              13.704887,
              52.623931
            ],
            [
              13.71953,
              52.59903
            ],
            [
              13.730091,
              52.573376
            ],
            [
              13.736468,
              52.547215
            ],
            [
              13.738601,
              52.5208
            ],
            [
              13.736468,
              52.494385
            ],
            [
              13.730091,
              52.468224
            ],
            [
              13.71953,
              52.44257
            ],
            [
              13.704887,
              52.417669
            ],
            [
              13.686304,
              52.393762
            ],
            [
              13.663959,
              52.371078
            ],
            [
              13.638067,
              52.349835
            ],
            [
              13.608878,
              52.330239
            ],
            [
              13.576673,
              52.312479
            ],
            [
              13.541763,
              52.296724
            ],
            [
              13.504482,
              52.283128
            ],
            [
              13.465191,
              52.271821
            ],
            [
              13.424267,
              52.262911
            ],
            [
              13.382106,
              52.256485
            ],
            [
              13.339112,
              52.252604
            ],
            [
              13.2957,
              52.251307
            ],
            [
              13.252288,
              52.252604
            ],
            [
              13.209294,
              52.256485
            ],
            [
              13.167133,
              52.262911
            ],
            [
              13.126209,
              52.271821
            ],
            [
              13.086918,
              52.283128
            ],
            [
              13.049637,
              52.296724
            ],
            [
              13.014727,
              52.312479
            ],
            [
              12.982522,
              52.330239
            ],
            [
              12.953333,
              52.349835
            ],
            [
              12.927441,
              52.371078
            ],
            [
              12.905096,
              52.393762
            ],
            [
              12.886513,
              52.417669
            ],
            [
              12.87187,
              52.44257
            ],
            [
              12.861309,
              52.468224
            ],
            [
              12.854932,
              52.494385
            ],
            [
              12.852799,
              52.5208
            ],
            [
              12.854932,
              52.547215
            ],
            [
              12.861309,
              52.573376
            ],
            [
              12.87187,
              52.59903
            ],
            [
              12.886513,
              52.623931
            ],
            [
              12.905096,
              52.647838
            ],
            [
              12.927441,
              52.670522
            ],
            [
              12.953333,
              52.691765
            ],
            [
              12.982522,
              52.711361
            ],
            [
              13.014727,
              52.729121
            ],
            [
              13.049637,
              52.744876
            ],
            [
              13.086918,
              52.758472
            ],
            [
              13.126209,
              52.769779
            ],
            [
              13.167133,
              52.778689
            ],
            [
              13.209294,
              52.785115
            ],
            [
              13.252288,
              52.788996
            ],
            [
              13.2957,
              52.790293
            ]
          ]
        ]
      }
    },
    {
      "type": "Feature",
      "properties": {
        "name": "60 km ring",
        "km": 60,
        "type": "ring"
      },
      "geometry": {
        "type": "Polygon",
        "coordinates": [
          [
            [
              13.2957,
              53.059787
            ],
            [
              13.382524,
              53.057191
            ],
            [
              13.468511,
              53.04943
            ],
            [
              13.552835,
              53.036578
            ],
            [
              13.634682,
              53.018759
            ],
            [
              13.713264,
              52.996144
            ],
            [
              13.787825,
              52.968951
            ],
            [
              13.857647,
              52.937442
            ],
            [
              13.922056,
              52.901921
            ],
            [
              13.980434,
              52.86273
            ],
            [
              14.032217,
              52.820245
            ],
            [
              14.076907,
              52.774877
            ],
            [
              14.114074,
              52.727061
            ],
            [
              14.143359,
              52.67726
            ],
            [
              14.164481,
              52.625951
            ],
            [
              14.177236,
              52.57363
            ],
            [
              14.181502,
              52.5208
            ],
            [
              14.177236,
              52.46797
            ],
            [
              14.164481,
              52.415649
            ],
            [
              14.143359,
              52.36434
            ],
            [
              14.114074,
              52.314539
            ],
            [
              14.076907,
              52.266723
            ],
            [
              14.032217,
              52.221355
            ],
            [
              13.980434,
              52.17887
            ],
            [
              13.922056,
              52.139679
            ],
            [
              13.857647,
              52.104158
            ],
            [
              13.787825,
              52.072649
            ],
            [
              13.713264,
              52.045456
            ],
            [
              13.634682,
              52.022841
            ],
            [
              13.552835,
              52.005022
            ],
            [
              13.468511,
              51.99217
            ],
            [
              13.382524,
              51.984409
            ],
            [
              13.2957,
              51.981813
            ],
            [
              13.208876,
              51.984409
            ],
            [
              13.122889,
              51.99217
            ],
            [
              13.038565,
              52.005022
            ],
            [
              12.956718,
              52.022841
            ],
            [
              12.878136,
              52.045456
            ],
            [
              12.803575,
              52.072649
            ],
            [
              12.733753,
              52.104158
            ],
            [
              12.669344,
              52.139679
            ],
            [
              12.610966,
              52.17887
            ],
            [
              12.559183,
              52.221355
            ],
            [
              12.514493,
              52.266723
            ],
            [
              12.477326,
              52.314539
            ],
            [
              12.448041,
              52.36434
            ],
            [
              12.426919,
              52.415649
            ],
            [
              12.414164,
              52.46797
            ],
            [
              12.409898,
              52.5208
            ],
            [
              12.414164,
              52.57363
            ],
            [
              12.426919,
              52.625951
            ],
            [
              12.448041,
              52.67726
            ],
            [
              12.477326,
              52.727061
            ],
            [
              12.514493,
              52.774877
            ],
            [
              12.559183,
              52.820245
            ],
            [
              12.610966,
              52.86273
            ],
            [
              12.669344,
              52.901921
            ],
            [
              12.733753,
              52.937442
            ],
            [
              12.803575,
              52.968951
            ],
            [
              12.878136,
              52.996144
            ],
            [
              12.956718,
              53.018759
            ],
            [
              13.038565,
              53.036578
            ],
            [
              13.122889,
              53.04943
            ],
            [
              13.208876,
              53.057191
            ],
            [
              13.2957,
              53.059787
            ]
          ]
        ]
      }
    },
    {
      "type": "Feature",
      "properties": {
        "name": "120 km ring",
        "km": 120,
        "type": "ring"
      },
      "geometry": {
        "type": "Polygon",
        "coordinates": [
          [
            [
              13.2957,
              53.598773
            ],
            [
              13.469347,
              53.593583
            ],
            [
              13.641323,
              53.57806
            ],
            [
              13.809969,
              53.552356
            ],
            [
              13.973663,
              53.516718
            ],
            [
              14.130828,
              53.471488
            ],
            [
              14.27995,
              53.417102
            ],
            [
              14.419593,
              53.354085
            ],
            [
              14.548413,
              53.283042
            ],
            [
              14.665168,
              53.204659
            ],
            [
              14.768734,
              53.11969
            ],
            [
              14.858115,
              53.028953
            ],
            [
              14.932448,
              52.933323
            ],
            [
              14.991019,
              52.833719
            ],
            [
              15.033262,
              52.731102
            ],
            [
              15.058772,
              52.62646
            ],
            [
              15.067303,
              52.5208
            ],
            [
              15.058772,
              52.41514
            ],
            [
              15.033262,
              52.310498
            ],
            [
              14.991019,
              52.207881
            ],
            [
              14.932448,
              52.108277
            ],
            [
              14.858115,
              52.012647
            ],
            [
              14.768734,
              51.92191
            ],
            [
              14.665168,
              51.836941
            ],
            [
              14.548413,
              51.758558
            ],
            [
              14.419593,
              51.687515
            ],
            [
              14.27995,
              51.624498
            ],
            [
              14.130828,
              51.570112
            ],
            [
              13.973663,
              51.524882
            ],
            [
              13.809969,
              51.489244
            ],
            [
              13.641323,
              51.46354
            ],
            [
              13.469347,
              51.448017
            ],
            [
              13.2957,
              51.442827
            ],
            [
              13.122053,
              51.448017
            ],
            [
              12.950077,
              51.46354
            ],
            [
              12.781431,
              51.489244
            ],
            [
              12.617737,
              51.524882
            ],
            [
              12.460572,
              51.570112
            ],
            [
              12.31145,
              51.624498
            ],
            [
              12.171807,
              51.687515
            ],
            [
              12.042987,
              51.758558
            ],
            [
              11.926232,
              51.836941
            ],
            [
              11.822666,
              51.92191
            ],
            [
              11.733285,
              52.012647
            ],
            [
              11.658952,
              52.108277
            ],
            [
              11.600381,
              52.207881
            ],
            [
              11.558138,
              52.310498
            ],
            [
              11.532628,
              52.41514
            ],
            [
              11.524097,
              52.5208
            ],
            [
              11.532628,
              52.62646
            ],
            [
              11.558138,
              52.731102
            ],
            [
              11.600381,
              52.833719
            ],
            [
              11.658952,
              52.933323
            ],
            [
              11.733285,
              53.028953
            ],
            [
              11.822666,
              53.11969
            ],
            [
              11.926232,
              53.204659
            ],
            [
              12.042987,
              53.283042
            ],
            [
              12.171807,
              53.354085
            ],
            [
              12.31145,
              53.417102
            ],
            [
              12.460572,
              53.471488
            ],
            [
              12.617737,
              53.516718
            ],
            [
              12.781431,
              53.552356
            ],
            [
              12.950077,
              53.57806
            ],
            [
              13.122053,
              53.593583
            ],
            [
              13.2957,
              53.598773
            ]
          ]
        ]
      }
    }
  ]
}