{
  "type": "FeatureCollection",
  "name": "KARTE — Road Corridors",
  "features": [
    {
      "type": "Feature",
      "properties": {
        "name": "A11 N to Uckermark",
        "type": "autobahn",
        "zone": "A"
      },
      "geometry": {
        "type": "LineString",
        "coordinates": [
          [
            13.408,
            52.521
          ],
          [
            13.45,
            52.62
          ],
          [
            13.52,
            52.78
          ],
          [
            13.61,
            52.95
          ],
          [
            13.68,
            53.12
          ],
          [
            13.72,
            53.28
          ]
        ]
      }
    },
    {
      "type": "Feature",
      "properties": {
        "name": "A9 S to Flaeming",
        "type": "autobahn",
        "zone": "C"
      },
      "geometry": {
        "type": "LineString",
        "coordinates": [
          [
            13.38,
            52.49
          ],
          [
            13.35,
            52.35
          ],
          [
            13.3,
            52.18
          ],
          [
            13.24,
            52.02
          ],
          [
            13.18,
            51.85
          ],
          [
            13.12,
            51.68
          ]
        ]
      }
    },
    {
      "type": "Feature",
      "properties": {
        "name": "A24 NW to Prignitz",
        "type": "autobahn",
        "zone": "D"
      },
      "geometry": {
        "type": "LineString",
        "coordinates": [
          [
            13.34,
            52.55
          ],
          [
            13.05,
            52.67
          ],
          [
            12.72,
            52.78
          ],
          [
            12.35,
            52.88
          ],
          [
            11.98,
            52.98
          ],
          [
            11.55,
            53.08
          ]
        ]
      }
    },
    {
      "type": "Feature",
      "properties": {
        "name": "A13 SE to Oder-Spree",
        "type": "autobahn",
        "zone": "B"
      },
      "geometry": {
        "type": "LineString",
        "coordinates": [
          [
            13.49,
            52.45
          ],
          [
            13.65,
            52.32
          ],
          [
            13.82,
            52.18
          ],
          [
            13.98,
            52.05
          ],
          [
            14.15,
            51.92
          ]
        ]
      }
    },
    {
      "type": "Feature",
      "properties": {
        "name": "A10 Berliner Ring",
        "type": "ring_road",
        "zone": "all"
      },
      "geometry": {
        "type": "Polygon",
        "coordinates": [
          [
            [
              13.2957,
              52.817243
            ],
            [
              13.343453,
              52.815815
            ],
            [
              13.390746,
              52.811547
            ],
            [
              13.437124,
              52.804478
            ],
            [
              13.48214,
              52.794677
            ],
            [
              13.52536,
              52.782239
            ],
            [
              13.566369,
              52.767283
            ],
            [
              13.604771,
              52.749953
            ],
            [
              13.640196,
              52.730417
            ],
            [
              13.672304,
              52.708861
            ],
            [
              13.700784,
              52.685495
            ],
            [
              13.725364,
              52.660542
            ],
            [
              13.745806,
              52.634244
            ],
            [
              13.761913,
              52.606853
            ],
            [
              13.77353,
              52.578633
            ],
            [
              13.780545,
              52.549856
            ],
            [
              13.782891,
              52.5208
            ],
            [
              13.780545,
              52.491744
            ],
            [
              13.77353,
              52.462967
            ],
            [
              13.761913,
              52.434747
            ],
            [
              13.745806,
              52.407356
            ],
            [
              13.725364,
              52.381058
            ],
            [
              13.700784,
              52.356105
            ],
            [
              13.672304,
              52.332739
            ],
            [
              13.640196,
              52.311183
            ],
            [
              13.604771,
              52.291647
            ],
            [
              13.566369,
              52.274317
            ],
            [
              13.52536,
              52.259361
            ],
            [
              13.48214,
              52.246923
            ],
            [
              13.437124,
              52.237122
            ],
            [
              13.390746,
              52.230053
            ],
            [
              13.343453,
              52.225785
            ],
            [
              13.2957,
              52.224357
            ],
            [
              13.247947,
              52.225785
            ],
            [
              13.200654,
              52.230053
            ],
            [
              13.154276,
              52.237122
            ],
            [
              13.10926,
              52.246923
            ],
            [
              13.06604,
              52.259361
            ],
            [
              13.025031,
              52.274317
            ],
            [
              12.986629,
              52.291647
            ],
            [
              12.951204,
              52.311183
            ],
            [
              12.919096,
              52.332739
            ],
            [
              12.890616,
              52.356105
            ],
            [
              12.866036,
              52.381058
            ],
            [
              12.845594,
              52.407356
            ],
            [
              12.829487,
              52.434747
            ],
            [
              12.81787,
              52.462967
            ],
            [
              12.810855,
              52.491744
            ],
            [
              12.808509,
              52.5208
            ],
            [
              12.810855,
              52.549856
            ],
            [
              12.81787,
              52.578633
            ],
            [
              12.829487,
              52.606853
            ],
            [
              12.845594,
              52.634244
            ],
            [
              12.866036,
              52.660542
            ],
            [
              12.890616,
              52.685495
            ],
            [
              12.919096,
              52.708861
            ],
            [
              12.951204,
              52.730417
            ],
            [
              12.986629,
              52.749953
            ],
            [
              13.025031,
              52.767283
            ],
            [
              13.06604,
              52.782239
            ],
            [
              13.10926,
              52.794677
            ],
            [
              13.154276,
              52.804478
            ],
            [
              13.200654,
              52.811547
            ],
            [
              13.247947,
              52.815815
            ],
            [
              13.2957,
              52.817243
            ]
          ]
        ]
      }
    }
  ]
}