{
  "type": "FeatureCollection",
  "features": [
    {
      "type": "Feature",
      "geometry": {
        "type": "Polygon",
        "coordinates": [
          [
            [
              13.0,
              52.38
            ],
            [
              13.0,
              52.7
            ],
            [
              12.2,
              52.7
            ],
            [
              12.2,
              52.38
            ],
            [
              13.0,
              52.38
            ]
          ]
        ]
      },
      "properties": {
        "zone_id": "Z08",
        "name": "Havelland-Fläming",
        "landkreis": "Havelland",
        "karte_score": 3.0,
        "tag": "avoid",
        "tag_display": "🔴 Avoid",
        "landrat": "Roger Lewandowski",
        "party": "CDU",
        "party_colour": "#000000",
        "political_note": "CDU Havelland",
        "fill": "#6b7280",
        "fill-opacity": 0.08,
        "stroke": "#000000",
        "stroke-width": 2,
        "stroke-opacity": 0.8,
        "label": "Z08 • Havelland-Fläming • CDU",
        "note": "Havelland — Avoid tag (Berlin commuter premium)"
      }
    },
    {
      "type": "Feature",
      "geometry": {
        "type": "Polygon",
        "coordinates": [
          [
            [
              14.75,
              52.35
            ],
            [
              14.75,
              52.85
            ],
            [
              14.2,
              52.85
            ],
            [
              14.2,
              52.35
            ],
            [
              14.75,
              52.35
            ]
          ]
        ]
      },
      "properties": {
        "zone_id": "Z15",
        "name": "Oderbruch",
        "landkreis": "Märkisch-Oderland",
        "karte_score": 1.0,
        "tag": "risk_flag",
        "tag_display": "⚠️ Risk Flag",
        "landrat": "Görke",
        "party": "SPD",
        "party_colour": "#E3000F",
        "political_note": "SPD",
        "fill": "#ef4444",
        "fill-opacity": 0.15,
        "stroke": "#E3000F",
        "stroke-width": 2,
        "stroke-opacity": 0.8,
        "label": "Z15 • Oderbruch • SPD",
        "note": "⚠️ FLOOD RISK — HQ100 confirmed. Intelligence only, no JAGD."
      }
    }
  ]
}