{
  "type": "FeatureCollection",
  "features": [
    {
      "type": "Feature",
      "properties": {
        "id": "Z01",
        "name": "Uckermark-Kernland",
        "wedge": "NE",
        "score": 7.65,
        "rank": 1,
        "tag": "active",
        "tag_label": "Active hunting zone",
        "fill_color": "#1D9E75",
        "fill_opacity": 0.35,
        "nature_water": 9,
        "access": 6,
        "community": 7,
        "risk": 8,
        "supply": 7,
        "budget_flags": "$ to $$$",
        "version": "v1.0",
        "scored_date": "2026-05-12",
        "notes": "Lakes, forests, remote, genuine rural Brandenburg. Prenzlau/Angermunde area."
      },
      "geometry": {
        "type": "Polygon",
        "coordinates": [
          [
            [
              13.5,
              53.0
            ],
            [
              14.2,
              53.0
            ],
            [
              14.2,
              53.55
            ],
            [
              13.5,
              53.55
            ],
            [
              13.5,
              53.0
            ]
          ]
        ]
      }
    },
    {
      "type": "Feature",
      "properties": {
        "id": "Z02",
        "name": "Uckermark-West",
        "wedge": "N",
        "score": 7.55,
        "rank": 3,
        "tag": "active",
        "tag_label": "Active hunting zone",
        "fill_color": "#1D9E75",
        "fill_opacity": 0.35,
        "nature_water": 8,
        "access": 7,
        "community": 7,
        "risk": 8,
        "supply": 7,
        "budget_flags": "$ to $$$",
        "version": "v1.0",
        "scored_date": "2026-05-12",
        "notes": "Lychen/Templin area. More accessible than Kernland, still strong water and forest."
      },
      "geometry": {
        "type": "Polygon",
        "coordinates": [
          [
            [
              12.9,
              52.95
            ],
            [
              13.5,
              52.95
            ],
            [
              13.5,
              53.45
            ],
            [
              12.9,
              53.45
            ],
            [
              12.9,
              52.95
            ]
          ]
        ]
      }
    },
    {
      "type": "Feature",
      "properties": {
        "id": "Z03",
        "name": "Meckl. Seenplatte-Sud",
        "wedge": "N",
        "score": 6.95,
        "rank": 7,
        "tag": "top_shelf",
        "tag_label": "Top Shelf",
        "fill_color": "#FAC775",
        "fill_opacity": 0.4,
        "nature_water": 10,
        "access": 4,
        "community": 6,
        "risk": 8,
        "supply": 5,
        "budget_flags": "$$$$",
        "version": "v1.0",
        "scored_date": "2026-05-12",
        "notes": "Southern fringe of lake district. Neustrelitz area. Exceptional nature, pushes 120km limit."
      },
      "geometry": {
        "type": "Polygon",
        "coordinates": [
          [
            [
              12.8,
              53.45
            ],
            [
              13.6,
              53.45
            ],
            [
              13.6,
              53.8
            ],
            [
              12.8,
              53.8
            ],
            [
              12.8,
              53.45
            ]
          ]
        ]
      }
    },
    {
      "type": "Feature",
      "properties": {
        "id": "Z04",
        "name": "Rheinsberger Seenland",
        "wedge": "NW",
        "score": 7.6,
        "rank": 2,
        "tag": "active",
        "tag_label": "Active hunting zone",
        "fill_color": "#1D9E75",
        "fill_opacity": 0.35,
        "nature_water": 8,
        "access": 7,
        "community": 7,
        "risk": 9,
        "supply": 6,
        "budget_flags": "$ to $$$",
        "version": "v1.0",
        "scored_date": "2026-05-12",
        "notes": "Rheinsberg area. Lakes, quiet, under the radar. Good distance from Berlin."
      },
      "geometry": {
        "type": "Polygon",
        "coordinates": [
          [
            [
              12.55,
              52.85
            ],
            [
              12.95,
              52.85
            ],
            [
              12.95,
              53.2
            ],
            [
              12.55,
              53.2
            ],
            [
              12.55,
              52.85
            ]
          ]
        ]
      }
    },
    {
      "type": "Feature",
      "properties": {
        "id": "Z05",
        "name": "Ruppiner Land",
        "wedge": "NW",
        "score": 7.2,
        "rank": 4,
        "tag": "active",
        "tag_label": "Active hunting zone",
        "fill_color": "#1D9E75",
        "fill_opacity": 0.35,
        "nature_water": 7,
        "access": 7,
        "community": 7,
        "risk": 8,
        "supply": 7,
        "budget_flags": "$ to $$$",
        "version": "v1.0",
        "scored_date": "2026-05-12",
        "notes": "Neuruppin area. Rolling, accessible, some tourism but real community."
      },
      "geometry": {
        "type": "Polygon",
        "coordinates": [
          [
            [
              12.4,
              52.65
            ],
            [
              12.9,
              52.65
            ],
            [
              12.9,
              52.95
            ],
            [
              12.4,
              52.95
            ],
            [
              12.4,
              52.65
            ]
          ]
        ]
      }
    },
    {
      "type": "Feature",
      "properties": {
        "id": "Z06",
        "name": "Prignitz-Ost",
        "wedge": "NW",
        "score": 5.7,
        "rank": 15,
        "tag": "possible",
        "tag_label": "Possible zone",
        "fill_color": "#EF9F27",
        "fill_opacity": 0.3,
        "nature_water": 6,
        "access": 5,
        "community": 5,
        "risk": 8,
        "supply": 4,
        "budget_flags": "$ to $$",
        "version": "v1.0",
        "scored_date": "2026-05-12",
        "notes": "Wittstock/Kyritz area. Very remote, very cheap, thin market."
      },
      "geometry": {
        "type": "Polygon",
        "coordinates": [
          [
            [
              12.0,
              52.95
            ],
            [
              12.55,
              52.95
            ],
            [
              12.55,
              53.35
            ],
            [
              12.0,
              53.35
            ],
            [
              12.0,
              52.95
            ]
          ]
        ]
      }
    },
    {
      "type": "Feature",
      "properties": {
        "id": "Z07",
        "name": "Prignitz-West",
        "wedge": "W",
        "score": 5.15,
        "rank": 18,
        "tag": "possible",
        "tag_label": "Possible zone",
        "fill_color": "#EF9F27",
        "fill_opacity": 0.3,
        "nature_water": 5,
        "access": 4,
        "community": 5,
        "risk": 8,
        "supply": 4,
        "budget_flags": "$ to $$",
        "version": "v1.0",
        "scored_date": "2026-05-12",
        "notes": "Perleberg/Pritzwalk. Deep rural, affordable, low supply."
      },
      "geometry": {
        "type": "Polygon",
        "coordinates": [
          [
            [
              11.5,
              52.95
            ],
            [
              12.0,
              52.95
            ],
            [
              12.0,
              53.35
            ],
            [
              11.5,
              53.35
            ],
            [
              11.5,
              52.95
            ]
          ]
        ]
      }
    },
    {
      "type": "Feature",
      "properties": {
        "id": "Z08",
        "name": "Havelland-Flaming-Ubergang",
        "wedge": "W",
        "score": 6.4,
        "rank": 14,
        "tag": "avoid",
        "tag_label": "Avoid",
        "fill_color": "#E24B4A",
        "fill_opacity": 0.25,
        "nature_water": 5,
        "access": 8,
        "community": 7,
        "risk": 7,
        "supply": 6,
        "budget_flags": "$$$ to $$$$",
        "version": "v1.0",
        "scored_date": "2026-05-12",
        "notes": "Transition zone west of Berlin. Prices driven by Berlin proximity, not quality."
      },
      "geometry": {
        "type": "Polygon",
        "coordinates": [
          [
            [
              12.2,
              52.35
            ],
            [
              12.85,
              52.35
            ],
            [
              12.85,
              52.65
            ],
            [
              12.2,
              52.65
            ],
            [
              12.2,
              52.35
            ]
          ]
        ]
      }
    },
    {
      "type": "Feature",
      "properties": {
        "id": "Z09",
        "name": "Hoher Flaming",
        "wedge": "SW",
        "score": 7.2,
        "rank": 5,
        "tag": "active",
        "tag_label": "Active hunting zone",
        "fill_color": "#1D9E75",
        "fill_opacity": 0.35,
        "nature_water": 7,
        "access": 7,
        "community": 7,
        "risk": 9,
        "supply": 6,
        "budget_flags": "$ to $$$",
        "version": "v1.0",
        "scored_date": "2026-05-12",
        "notes": "Belzig/Bad Belzig area. Hills, quiet, genuinely underrated. Best balance zone SW."
      },
      "geometry": {
        "type": "Polygon",
        "coordinates": [
          [
            [
              12.15,
              51.9
            ],
            [
              12.75,
              51.9
            ],
            [
              12.75,
              52.25
            ],
            [
              12.15,
              52.25
            ],
            [
              12.15,
              51.9
            ]
          ]
        ]
      }
    },
    {
      "type": "Feature",
      "properties": {
        "id": "Z10",
        "name": "Flaming-Sud",
        "wedge": "S",
        "score": 6.85,
        "rank": 8,
        "tag": "possible",
        "tag_label": "Possible zone",
        "fill_color": "#EF9F27",
        "fill_opacity": 0.3,
        "nature_water": 6,
        "access": 7,
        "community": 7,
        "risk": 9,
        "supply": 6,
        "budget_flags": "$ to $$$",
        "version": "v1.0",
        "scored_date": "2026-05-12",
        "notes": "Juterbog/Luckenwalde area. Flatter, more farmland, less dramatic than Hoher Flaming."
      },
      "geometry": {
        "type": "Polygon",
        "coordinates": [
          [
            [
              12.75,
              51.75
            ],
            [
              13.35,
              51.75
            ],
            [
              13.35,
              52.1
            ],
            [
              12.75,
              52.1
            ],
            [
              12.75,
              51.75
            ]
          ]
        ]
      }
    },
    {
      "type": "Feature",
      "properties": {
        "id": "Z11",
        "name": "Niederlausitz-West",
        "wedge": "S",
        "score": 5.3,
        "rank": 16,
        "tag": "possible",
        "tag_label": "Possible zone",
        "fill_color": "#EF9F27",
        "fill_opacity": 0.3,
        "nature_water": 5,
        "access": 5,
        "community": 5,
        "risk": 7,
        "supply": 5,
        "budget_flags": "$ to $$",
        "version": "v1.0",
        "scored_date": "2026-05-12",
        "notes": "Doberlug area. Affordable, recovering post-lignite, interesting future upside."
      },
      "geometry": {
        "type": "Polygon",
        "coordinates": [
          [
            [
              13.35,
              51.55
            ],
            [
              14.0,
              51.55
            ],
            [
              14.0,
              51.9
            ],
            [
              13.35,
              51.9
            ],
            [
              13.35,
              51.55
            ]
          ]
        ]
      }
    },
    {
      "type": "Feature",
      "properties": {
        "id": "Z12",
        "name": "Spreewald",
        "wedge": "SE",
        "score": 6.5,
        "rank": 13,
        "tag": "possible",
        "tag_label": "Possible zone",
        "fill_color": "#EF9F27",
        "fill_opacity": 0.3,
        "nature_water": 8,
        "access": 6,
        "community": 5,
        "risk": 7,
        "supply": 5,
        "budget_flags": "$$ to $$$",
        "version": "v1.0",
        "scored_date": "2026-05-12",
        "notes": "Lubben/Lubbenau. Unique landscape, water everywhere, heavily tourist-oriented."
      },
      "geometry": {
        "type": "Polygon",
        "coordinates": [
          [
            [
              13.7,
              51.8
            ],
            [
              14.2,
              51.8
            ],
            [
              14.2,
              52.2
            ],
            [
              13.7,
              52.2
            ],
            [
              13.7,
              51.8
            ]
          ]
        ]
      }
    },
    {
      "type": "Feature",
      "properties": {
        "id": "Z13",
        "name": "Oder-Spree-Seen",
        "wedge": "SE",
        "score": 6.75,
        "rank": 10,
        "tag": "top_shelf",
        "tag_label": "Top Shelf",
        "fill_color": "#FAC775",
        "fill_opacity": 0.4,
        "nature_water": 7,
        "access": 7,
        "community": 6,
        "risk": 7,
        "supply": 6,
        "budget_flags": "$$$ to $$$$",
        "version": "v1.0",
        "scored_date": "2026-05-12",
        "notes": "Storkow/Wendisch Rietz area. Lakes, popular, prices rising fast."
      },
      "geometry": {
        "type": "Polygon",
        "coordinates": [
          [
            [
              13.85,
              52.1
            ],
            [
              14.35,
              52.1
            ],
            [
              14.35,
              52.45
            ],
            [
              13.85,
              52.45
            ],
            [
              13.85,
              52.1
            ]
          ]
        ]
      }
    },
    {
      "type": "Feature",
      "properties": {
        "id": "Z14",
        "name": "Markische Schweiz",
        "wedge": "E",
        "score": 6.85,
        "rank": 9,
        "tag": "top_shelf",
        "tag_label": "Top Shelf",
        "fill_color": "#FAC775",
        "fill_opacity": 0.4,
        "nature_water": 7,
        "access": 8,
        "community": 6,
        "risk": 8,
        "supply": 3,
        "budget_flags": "$$$ to $$$$",
        "version": "v1.0",
        "scored_date": "2026-05-12",
        "notes": "Buckow area. Small, beautiful, close to Berlin. Prices high, supply tiny."
      },
      "geometry": {
        "type": "Polygon",
        "coordinates": [
          [
            [
              14.0,
              52.45
            ],
            [
              14.4,
              52.45
            ],
            [
              14.4,
              52.75
            ],
            [
              14.0,
              52.75
            ],
            [
              14.0,
              52.45
            ]
          ]
        ]
      }
    },
    {
      "type": "Feature",
      "properties": {
        "id": "Z15",
        "name": "Oderbruch",
        "wedge": "E",
        "score": 5.2,
        "rank": 17,
        "tag": "disqualified",
        "tag_label": "Disqualified \u2014 HQ100 flood plain confirmed",
        "fill_color": "#888780",
        "fill_opacity": 0.2,
        "nature_water": 5,
        "access": 6,
        "community": 6,
        "risk": 4,
        "supply": 5,
        "budget_flags": "$ to $$",
        "version": "v1.0",
        "scored_date": "2026-05-12",
        "notes": "Oder valley. Flood risk must be verified against LGB Brandenburg before any JAGD activity.",
        "disqualified_reason": "HQ100 flood plain. 1997 Oder breach. EU Floods Directive mapped. Hard disqualifier.",
        "disqualified_date": "2026-05-12",
        "disqualified_source": "J-007 zone validation"
      },
      "geometry": {
        "type": "Polygon",
        "coordinates": [
          [
            [
              14.2,
              52.45
            ],
            [
              14.65,
              52.45
            ],
            [
              14.65,
              52.85
            ],
            [
              14.2,
              52.85
            ],
            [
              14.2,
              52.45
            ]
          ]
        ]
      }
    },
    {
      "type": "Feature",
      "properties": {
        "id": "Z16",
        "name": "Schorfheide-Sud",
        "wedge": "NE",
        "score": 7.15,
        "rank": 6,
        "tag": "active",
        "tag_label": "Active hunting zone",
        "fill_color": "#1D9E75",
        "fill_opacity": 0.35,
        "nature_water": 7,
        "access": 7,
        "community": 7,
        "risk": 8,
        "supply": 6,
        "budget_flags": "$ to $$$",
        "version": "v1.0",
        "scored_date": "2026-05-12",
        "notes": "South of Schorfheide forest. Eberswalde area. Nature reserve proximity, real year-round community."
      },
      "geometry": {
        "type": "Polygon",
        "coordinates": [
          [
            [
              13.55,
              52.65
            ],
            [
              14.0,
              52.65
            ],
            [
              14.0,
              52.98
            ],
            [
              13.55,
              52.98
            ],
            [
              13.55,
              52.65
            ]
          ]
        ]
      }
    },
    {
      "type": "Feature",
      "properties": {
        "id": "Z17",
        "name": "Barnim-Nord",
        "wedge": "NE",
        "score": 6.65,
        "rank": 11,
        "tag": "possible",
        "tag_label": "Possible zone",
        "fill_color": "#EF9F27",
        "fill_opacity": 0.3,
        "nature_water": 6,
        "access": 7,
        "community": 7,
        "risk": 7,
        "supply": 6,
        "budget_flags": "$$ to $$$",
        "version": "v1.0",
        "scored_date": "2026-05-12",
        "notes": "North Barnim, away from suburban fringe. More affordable than South Barnim."
      },
      "geometry": {
        "type": "Polygon",
        "coordinates": [
          [
            [
              13.55,
              52.45
            ],
            [
              14.0,
              52.45
            ],
            [
              14.0,
              52.65
            ],
            [
              13.55,
              52.65
            ],
            [
              13.55,
              52.45
            ]
          ]
        ]
      }
    },
    {
      "type": "Feature",
      "properties": {
        "id": "Z18",
        "name": "Flaming-Mitte",
        "wedge": "SW",
        "score": 6.6,
        "rank": 12,
        "tag": "possible",
        "tag_label": "Possible zone",
        "fill_color": "#EF9F27",
        "fill_opacity": 0.3,
        "nature_water": 6,
        "access": 7,
        "community": 6,
        "risk": 9,
        "supply": 5,
        "budget_flags": "$ to $$$",
        "version": "v1.0",
        "scored_date": "2026-05-12",
        "notes": "Niemegk/Treuenbrietzen area. Quiet, affordable, underexplored."
      },
      "geometry": {
        "type": "Polygon",
        "coordinates": [
          [
            [
              12.15,
              52.15
            ],
            [
              12.75,
              52.15
            ],
            [
              12.75,
              52.45
            ],
            [
              12.15,
              52.45
            ],
            [
              12.15,
              52.15
            ]
          ]
        ]
      }
    }
  ]
}