{
  "type": "FeatureCollection",
  "features": [
    {
      "type": "Feature",
      "geometry": {
        "type": "Polygon",
        "coordinates": [
          [
            [
              14.3,
              53.1
            ],
            [
              14.3,
              53.7
            ],
            [
              13.7,
              53.7
            ],
            [
              13.7,
              53.1
            ],
            [
              14.3,
              53.1
            ]
          ]
        ]
      },
      "properties": {
        "zone_id": "Z01",
        "name": "Uckermark-Kernland",
        "landkreis": "Uckermark",
        "karte_score": 7.65,
        "tag": "active",
        "tag_display": "🟢 Active",
        "landrat": "Karina Dörk",
        "party": "CDU",
        "party_colour": "#000000",
        "political_note": "Re-elected Apr 2025, beat AfD 60%",
        "fill": "#22c55e",
        "fill-opacity": 0.15,
        "stroke": "#000000",
        "stroke-width": 2,
        "stroke-opacity": 0.8,
        "label": "Z01 • Uckermark-Kernland • CDU",
        "note": "Eastern Uckermark around Prenzlau, Angermünde, Templin"
      }
    },
    {
      "type": "Feature",
      "geometry": {
        "type": "Polygon",
        "coordinates": [
          [
            [
              13.7,
              52.9
            ],
            [
              13.7,
              53.3
            ],
            [
              13.1,
              53.3
            ],
            [
              13.1,
              52.9
            ],
            [
              13.7,
              52.9
            ]
          ]
        ]
      },
      "properties": {
        "zone_id": "Z02",
        "name": "Uckermark-West",
        "landkreis": "Uckermark",
        "karte_score": 7.2,
        "tag": "active",
        "tag_display": "🟢 Active",
        "landrat": "Karina Dörk",
        "party": "CDU",
        "party_colour": "#000000",
        "political_note": "Re-elected Apr 2025, beat AfD 60%",
        "fill": "#22c55e",
        "fill-opacity": 0.15,
        "stroke": "#000000",
        "stroke-width": 2,
        "stroke-opacity": 0.8,
        "label": "Z02 • Uckermark-West • CDU",
        "note": "Western Uckermark around Templin, Boitzenburger Land"
      }
    },
    {
      "type": "Feature",
      "geometry": {
        "type": "Polygon",
        "coordinates": [
          [
            [
              13.2,
              53.3
            ],
            [
              13.2,
              53.8
            ],
            [
              12.4,
              53.8
            ],
            [
              12.4,
              53.3
            ],
            [
              13.2,
              53.3
            ]
          ]
        ]
      },
      "properties": {
        "zone_id": "Z03",
        "name": "Meckl. Seenplatte-Süd",
        "landkreis": "Mecklenburgische Seenplatte",
        "karte_score": 6.5,
        "tag": "top_shelf",
        "tag_display": "⭐ Top Shelf",
        "landrat": "Heiko Klöber",
        "party": "SPD",
        "party_colour": "#E3000F",
        "political_note": "SPD",
        "fill": "#f59e0b",
        "fill-opacity": 0.15,
        "stroke": "#E3000F",
        "stroke-width": 2,
        "stroke-opacity": 0.8,
        "label": "Z03 • Meckl. Seenplatte-Süd • SPD",
        "note": "Southern Meckl. Seenplatte, just north of Uckermark"
      }
    },
    {
      "type": "Feature",
      "geometry": {
        "type": "Polygon",
        "coordinates": [
          [
            [
              13.1,
              53.0
            ],
            [
              13.1,
              53.3
            ],
            [
              12.4,
              53.3
            ],
            [
              12.4,
              53.0
            ],
            [
              13.1,
              53.0
            ]
          ]
        ]
      },
      "properties": {
        "zone_id": "Z04",
        "name": "Rheinsberger Seenland",
        "landkreis": "Ostprignitz-Ruppin",
        "karte_score": 7.5,
        "tag": "active",
        "tag_display": "🟢 Active",
        "landrat": "Ralf Reinhardt",
        "party": "parteilos",
        "party_colour": "#888888",
        "political_note": "Parteilos, SPD/CDU supported",
        "fill": "#22c55e",
        "fill-opacity": 0.15,
        "stroke": "#888888",
        "stroke-width": 2,
        "stroke-opacity": 0.8,
        "label": "Z04 • Rheinsberger Seenland • parteilos",
        "note": "Around Rheinsberg, Gransee lakes"
      }
    },
    {
      "type": "Feature",
      "geometry": {
        "type": "Polygon",
        "coordinates": [
          [
            [
              13.1,
              52.7
            ],
            [
              13.1,
              53.0
            ],
            [
              12.4,
              53.0
            ],
            [
              12.4,
              52.7
            ],
            [
              13.1,
              52.7
            ]
          ]
        ]
      },
      "properties": {
        "zone_id": "Z05",
        "name": "Ruppiner Land",
        "landkreis": "Ostprignitz-Ruppin",
        "karte_score": 7.0,
        "tag": "active",
        "tag_display": "🟢 Active",
        "landrat": "Ralf Reinhardt",
        "party": "parteilos",
        "party_colour": "#888888",
        "political_note": "Parteilos, SPD/CDU supported",
        "fill": "#22c55e",
        "fill-opacity": 0.15,
        "stroke": "#888888",
        "stroke-width": 2,
        "stroke-opacity": 0.8,
        "label": "Z05 • Ruppiner Land • parteilos",
        "note": "Around Neuruppin"
      }
    },
    {
      "type": "Feature",
      "geometry": {
        "type": "Polygon",
        "coordinates": [
          [
            [
              12.4,
              52.9
            ],
            [
              12.4,
              53.3
            ],
            [
              11.8,
              53.3
            ],
            [
              11.8,
              52.9
            ],
            [
              12.4,
              52.9
            ]
          ]
        ]
      },
      "properties": {
        "zone_id": "Z06",
        "name": "Prignitz-Ost",
        "landkreis": "Prignitz",
        "karte_score": 5.8,
        "tag": "possible",
        "tag_display": "🟡 Possible",
        "landrat": "Christian Müller",
        "party": "SPD",
        "party_colour": "#E3000F",
        "political_note": "Elected 2022, 65.5% first round",
        "fill": "#eab308",
        "fill-opacity": 0.1,
        "stroke": "#E3000F",
        "stroke-width": 2,
        "stroke-opacity": 0.8,
        "label": "Z06 • Prignitz-Ost • SPD",
        "note": "Eastern Prignitz around Wittstock/Dosse"
      }
    },
    {
      "type": "Feature",
      "geometry": {
        "type": "Polygon",
        "coordinates": [
          [
            [
              11.8,
              52.9
            ],
            [
              11.8,
              53.4
            ],
            [
              11.1,
              53.4
            ],
            [
              11.1,
              52.9
            ],
            [
              11.8,
              52.9
            ]
          ]
        ]
      },
      "properties": {
        "zone_id": "Z07",
        "name": "Prignitz-West",
        "landkreis": "Prignitz",
        "karte_score": 5.5,
        "tag": "possible",
        "tag_display": "🟡 Possible",
        "landrat": "Christian Müller",
        "party": "SPD",
        "party_colour": "#E3000F",
        "political_note": "Elected 2022, 65.5% first round",
        "fill": "#eab308",
        "fill-opacity": 0.1,
        "stroke": "#E3000F",
        "stroke-width": 2,
        "stroke-opacity": 0.8,
        "label": "Z07 • Prignitz-West • SPD",
        "note": "Western Prignitz around Perleberg, Pritzwalk"
      }
    },
    {
      "type": "Feature",
      "geometry": {
        "type": "Polygon",
        "coordinates": [
          [
            [
              13.0,
              52.38
            ],
            [
              13.0,
              52.7
            ],
            [
              12.2,
              52.7
            ],
            [
              12.2,
              52.38
            ],
            [
              13.0,
              52.38
            ]
          ]
        ]
      },
      "properties": {
        "zone_id": "Z08",
        "name": "Havelland-Fläming",
        "landkreis": "Havelland",
        "karte_score": 3.0,
        "tag": "avoid",
        "tag_display": "🔴 Avoid",
        "landrat": "Roger Lewandowski",
        "party": "CDU",
        "party_colour": "#000000",
        "political_note": "CDU Havelland",
        "fill": "#6b7280",
        "fill-opacity": 0.08,
        "stroke": "#000000",
        "stroke-width": 2,
        "stroke-opacity": 0.8,
        "label": "Z08 • Havelland-Fläming • CDU",
        "note": "Havelland — Avoid tag (Berlin commuter premium)"
      }
    },
    {
      "type": "Feature",
      "geometry": {
        "type": "Polygon",
        "coordinates": [
          [
            [
              13.15,
              52.05
            ],
            [
              13.15,
              52.38
            ],
            [
              12.7,
              52.38
            ],
            [
              12.7,
              52.05
            ],
            [
              13.15,
              52.05
            ]
          ]
        ]
      },
      "properties": {
        "zone_id": "Z09",
        "name": "Hoher Fläming",
        "landkreis": "Potsdam-Mittelmark",
        "karte_score": 6.8,
        "tag": "top_shelf",
        "tag_display": "⭐ Top Shelf",
        "landrat": "Marko Schöneburg",
        "party": "SPD",
        "party_colour": "#E3000F",
        "political_note": "SPD",
        "fill": "#f59e0b",
        "fill-opacity": 0.15,
        "stroke": "#E3000F",
        "stroke-width": 2,
        "stroke-opacity": 0.8,
        "label": "Z09 • Hoher Fläming • SPD",
        "note": "Fläming hills, reclassified Top Shelf (avg €744k)"
      }
    },
    {
      "type": "Feature",
      "geometry": {
        "type": "Polygon",
        "coordinates": [
          [
            [
              13.2,
              51.75
            ],
            [
              13.2,
              52.05
            ],
            [
              12.7,
              52.05
            ],
            [
              12.7,
              51.75
            ],
            [
              13.2,
              51.75
            ]
          ]
        ]
      },
      "properties": {
        "zone_id": "Z10",
        "name": "Fläming-Süd",
        "landkreis": "Teltow-Fläming",
        "karte_score": 7.1,
        "tag": "active",
        "tag_display": "🟢 Active",
        "landrat": "Gallandi",
        "party": "SPD",
        "party_colour": "#E3000F",
        "political_note": "SPD Landkreis",
        "fill": "#22c55e",
        "fill-opacity": 0.15,
        "stroke": "#E3000F",
        "stroke-width": 2,
        "stroke-opacity": 0.8,
        "label": "Z10 • Fläming-Süd • SPD",
        "note": "Jüterbog area, active budget zone"
      }
    },
    {
      "type": "Feature",
      "geometry": {
        "type": "Polygon",
        "coordinates": [
          [
            [
              13.8,
              51.5
            ],
            [
              13.8,
              52.0
            ],
            [
              13.2,
              52.0
            ],
            [
              13.2,
              51.5
            ],
            [
              13.8,
              51.5
            ]
          ]
        ]
      },
      "properties": {
        "zone_id": "Z11",
        "name": "Niederlausitz-West",
        "landkreis": "Elbe-Elster",
        "karte_score": 5.5,
        "tag": "possible",
        "tag_display": "🟡 Possible",
        "landrat": "Christian Heinrich",
        "party": "CDU",
        "party_colour": "#000000",
        "political_note": "CDU",
        "fill": "#eab308",
        "fill-opacity": 0.1,
        "stroke": "#000000",
        "stroke-width": 2,
        "stroke-opacity": 0.8,
        "label": "Z11 • Niederlausitz-West • CDU",
        "note": "Elbe-Elster, western Niederlausitz"
      }
    },
    {
      "type": "Feature",
      "geometry": {
        "type": "Polygon",
        "coordinates": [
          [
            [
              14.5,
              51.7
            ],
            [
              14.5,
              52.0
            ],
            [
              13.8,
              52.0
            ],
            [
              13.8,
              51.7
            ],
            [
              14.5,
              51.7
            ]
          ]
        ]
      },
      "properties": {
        "zone_id": "Z12",
        "name": "Spreewald",
        "landkreis": "Dahme-Spreewald",
        "karte_score": 5.8,
        "tag": "possible",
        "tag_display": "🟡 Possible",
        "landrat": "Sven Herzberger",
        "party": "parteilos",
        "party_colour": "#888888",
        "political_note": "Parteilos, beat AfD 2023",
        "fill": "#eab308",
        "fill-opacity": 0.1,
        "stroke": "#888888",
        "stroke-width": 2,
        "stroke-opacity": 0.8,
        "label": "Z12 • Spreewald • parteilos",
        "note": "Spreewald, Dahme-Spreewald"
      }
    },
    {
      "type": "Feature",
      "geometry": {
        "type": "Polygon",
        "coordinates": [
          [
            [
              14.4,
              52.0
            ],
            [
              14.4,
              52.3
            ],
            [
              13.75,
              52.3
            ],
            [
              13.75,
              52.0
            ],
            [
              14.4,
              52.0
            ]
          ]
        ]
      },
      "properties": {
        "zone_id": "Z13",
        "name": "Oder-Spree-Seen",
        "landkreis": "Oder-Spree",
        "karte_score": 6.2,
        "tag": "top_shelf",
        "tag_display": "⭐ Top Shelf",
        "landrat": "Rolf Lindemann",
        "party": "SPD",
        "party_colour": "#E3000F",
        "political_note": "SPD",
        "fill": "#f59e0b",
        "fill-opacity": 0.15,
        "stroke": "#E3000F",
        "stroke-width": 2,
        "stroke-opacity": 0.8,
        "label": "Z13 • Oder-Spree-Seen • SPD",
        "note": "Lake district, expensive zone — intelligence only"
      }
    },
    {
      "type": "Feature",
      "geometry": {
        "type": "Polygon",
        "coordinates": [
          [
            [
              14.2,
              52.3
            ],
            [
              14.2,
              52.8
            ],
            [
              13.85,
              52.8
            ],
            [
              13.85,
              52.3
            ],
            [
              14.2,
              52.3
            ]
          ]
        ]
      },
      "properties": {
        "zone_id": "Z14",
        "name": "Märkische Schweiz",
        "landkreis": "Märkisch-Oderland",
        "karte_score": 6.0,
        "tag": "top_shelf",
        "tag_display": "⭐ Top Shelf",
        "landrat": "Görke",
        "party": "SPD",
        "party_colour": "#E3000F",
        "political_note": "SPD",
        "fill": "#f59e0b",
        "fill-opacity": 0.15,
        "stroke": "#E3000F",
        "stroke-width": 2,
        "stroke-opacity": 0.8,
        "label": "Z14 • Märkische Schweiz • SPD",
        "note": "Bad Saarow area, Märkische Schweiz hills"
      }
    },
    {
      "type": "Feature",
      "geometry": {
        "type": "Polygon",
        "coordinates": [
          [
            [
              14.75,
              52.35
            ],
            [
              14.75,
              52.85
            ],
            [
              14.2,
              52.85
            ],
            [
              14.2,
              52.35
            ],
            [
              14.75,
              52.35
            ]
          ]
        ]
      },
      "properties": {
        "zone_id": "Z15",
        "name": "Oderbruch",
        "landkreis": "Märkisch-Oderland",
        "karte_score": 1.0,
        "tag": "risk_flag",
        "tag_display": "⚠️ Risk Flag",
        "landrat": "Görke",
        "party": "SPD",
        "party_colour": "#E3000F",
        "political_note": "SPD",
        "fill": "#ef4444",
        "fill-opacity": 0.15,
        "stroke": "#E3000F",
        "stroke-width": 2,
        "stroke-opacity": 0.8,
        "label": "Z15 • Oderbruch • SPD",
        "note": "⚠️ FLOOD RISK — HQ100 confirmed. Intelligence only, no JAGD."
      }
    },
    {
      "type": "Feature",
      "geometry": {
        "type": "Polygon",
        "coordinates": [
          [
            [
              14.1,
              52.8
            ],
            [
              14.1,
              53.1
            ],
            [
              13.7,
              53.1
            ],
            [
              13.7,
              52.8
            ],
            [
              14.1,
              52.8
            ]
          ]
        ]
      },
      "properties": {
        "zone_id": "Z16",
        "name": "Schorfheide-Süd",
        "landkreis": "Barnim",
        "karte_score": 7.3,
        "tag": "active",
        "tag_display": "🟢 Active",
        "landrat": "Daniel Kurth",
        "party": "SPD",
        "party_colour": "#E3000F",
        "political_note": "SPD, Stichwahl May 2025 vs AfD",
        "fill": "#22c55e",
        "fill-opacity": 0.15,
        "stroke": "#E3000F",
        "stroke-width": 2,
        "stroke-opacity": 0.8,
        "label": "Z16 • Schorfheide-Süd • SPD",
        "note": "Schorfheide forest, Werbellinsee area"
      }
    },
    {
      "type": "Feature",
      "geometry": {
        "type": "Polygon",
        "coordinates": [
          [
            [
              13.85,
              52.5
            ],
            [
              13.85,
              52.8
            ],
            [
              13.55,
              52.8
            ],
            [
              13.55,
              52.5
            ],
            [
              13.85,
              52.5
            ]
          ]
        ]
      },
      "properties": {
        "zone_id": "Z17",
        "name": "Barnim-Nord",
        "landkreis": "Barnim",
        "karte_score": 5.8,
        "tag": "possible",
        "tag_display": "🟡 Possible",
        "landrat": "Daniel Kurth",
        "party": "SPD",
        "party_colour": "#E3000F",
        "political_note": "SPD, Stichwahl May 2025 vs AfD",
        "fill": "#eab308",
        "fill-opacity": 0.1,
        "stroke": "#E3000F",
        "stroke-width": 2,
        "stroke-opacity": 0.8,
        "label": "Z17 • Barnim-Nord • SPD",
        "note": "Northern Barnim, closer to Berlin"
      }
    },
    {
      "type": "Feature",
      "geometry": {
        "type": "Polygon",
        "coordinates": [
          [
            [
              12.7,
              51.85
            ],
            [
              12.7,
              52.28
            ],
            [
              12.35,
              52.28
            ],
            [
              12.35,
              51.85
            ],
            [
              12.7,
              51.85
            ]
          ]
        ]
      },
      "properties": {
        "zone_id": "Z18",
        "name": "Fläming-Mitte",
        "landkreis": "Teltow-Fläming",
        "karte_score": 7.2,
        "tag": "active",
        "tag_display": "🟢 Active",
        "landrat": "Gallandi",
        "party": "SPD",
        "party_colour": "#E3000F",
        "political_note": "SPD Landkreis",
        "fill": "#22c55e",
        "fill-opacity": 0.15,
        "stroke": "#E3000F",
        "stroke-width": 2,
        "stroke-opacity": 0.8,
        "label": "Z18 • Fläming-Mitte • SPD",
        "note": "Niemegk area — cheapest zone avg €201k. Active budget zone."
      }
    }
  ]
}